{
  "links" : {
    "next" : "https://api.nasa.gov/neo/rest/v1/feed?start_date=2013-02-09&end_date=2013-02-09&detailed=true&api_key=t0TVs3DtDT2H8Oy2Zy8m2eVrNsAVKAexjcZXUckd",
    "prev" : "https://api.nasa.gov/neo/rest/v1/feed?start_date=2013-02-07&end_date=2013-02-07&detailed=true&api_key=t0TVs3DtDT2H8Oy2Zy8m2eVrNsAVKAexjcZXUckd",
    "self" : "https://api.nasa.gov/neo/rest/v1/feed?start_date=2013-02-08&end_date=2013-02-08&detailed=true&api_key=t0TVs3DtDT2H8Oy2Zy8m2eVrNsAVKAexjcZXUckd"
  },
  "element_count" : 5,
  "near_earth_objects" : {
    "2013-02-08" : [ {
      "links" : {
        "self" : "https://api.nasa.gov/neo/rest/v1/neo/3673636?api_key=t0TVs3DtDT2H8Oy2Zy8m2eVrNsAVKAexjcZXUckd"
      },
      "neo_reference_id" : "3673636",
      "name" : "(2014 LK21)",
      "nasa_jpl_url" : "http://ssd.jpl.nasa.gov/sbdb.cgi?sstr=3673636",
      "absolute_magnitude_h" : 25.9,
      "estimated_diameter" : {
        "kilometers" : {
          "estimated_diameter_min" : 0.0175612318,
          "estimated_diameter_max" : 0.0392681082
        },
        "meters" : {
          "estimated_diameter_min" : 17.561231848,
          "estimated_diameter_max" : 39.2681081809
        },
        "miles" : {
          "estimated_diameter_min" : 0.0109120402,
          "estimated_diameter_max" : 0.0244000636
        },
        "feet" : {
          "estimated_diameter_min" : 57.6155918963,
          "estimated_diameter_max" : 128.8323800441
        }
      },
      "is_potentially_hazardous_asteroid" : false,
      "close_approach_data" : [ {
        "close_approach_date" : "2013-02-08",
        "epoch_date_close_approach" : 1360310400000,
        "relative_velocity" : {
          "kilometers_per_second" : "8.224921259",
          "kilometers_per_hour" : "29609.7165323585",
          "miles_per_hour" : "18398.3263642313"
        },
        "miss_distance" : {
          "astronomical" : "0.1961092337",
          "lunar" : "76.286491394",
          "kilometers" : "29337524",
          "miles" : "18229492"
        },
        "orbiting_body" : "Earth"
      } ],
      "orbital_data" : {
        "orbit_id" : "13",
        "orbit_determination_date" : "2017-04-06 08:40:08",
        "orbit_uncertainty" : "4",
        "minimum_orbit_intersection" : ".0139415",
        "jupiter_tisserand_invariant" : "6.254",
        "epoch_osculation" : "2458000.5",
        "eccentricity" : ".09916393521131488",
        "semi_major_axis" : ".9631307553206523",
        "inclination" : "5.797769185517299",
        "ascending_node_longitude" : "251.513792525082",
        "orbital_period" : "345.244130410879",
        "perihelion_distance" : ".8676229195000104",
        "perihelion_argument" : "139.5650284513843",
        "aphelion_distance" : "1.058638591141294",
        "perihelion_time" : "2457973.356962472972",
        "mean_anomaly" : "28.30314160041126",
        "mean_motion" : "1.042740392346598",
        "equinox" : "J2000"
      }
    }, {
      "links" : {
        "self" : "https://api.nasa.gov/neo/rest/v1/neo/3744991?api_key=t0TVs3DtDT2H8Oy2Zy8m2eVrNsAVKAexjcZXUckd"
      },
      "neo_reference_id" : "3744991",
      "name" : "(2016 DZ21)",
      "nasa_jpl_url" : "http://ssd.jpl.nasa.gov/sbdb.cgi?sstr=3744991",
      "absolute_magnitude_h" : 25.4,
      "estimated_diameter" : {
        "kilometers" : {
          "estimated_diameter_min" : 0.022108281,
          "estimated_diameter_max" : 0.0494356193
        },
        "meters" : {
          "estimated_diameter_min" : 22.1082810359,
          "estimated_diameter_max" : 49.435619262
        },
        "miles" : {
          "estimated_diameter_min" : 0.0137374447,
          "estimated_diameter_max" : 0.0307178602
        },
        "feet" : {
          "estimated_diameter_min" : 72.5337327539,
          "estimated_diameter_max" : 162.1903570994
        }
      },
      "is_potentially_hazardous_asteroid" : false,
      "close_approach_data" : [ {
        "close_approach_date" : "2013-02-08",
        "epoch_date_close_approach" : 1360310400000,
        "relative_velocity" : {
          "kilometers_per_second" : "3.7373544869",
          "kilometers_per_hour" : "13454.4761527364",
          "miles_per_hour" : "8360.0882516822"
        },
        "miss_distance" : {
          "astronomical" : "0.1420424257",
          "lunar" : "55.2545051575",
          "kilometers" : "21249246",
          "miles" : "13203669"
        },
        "orbiting_body" : "Earth"
      } ],
      "orbital_data" : {
        "orbit_id" : "11",
        "orbit_determination_date" : "2017-04-06 08:27:59",
        "orbit_uncertainty" : "7",
        "minimum_orbit_intersection" : ".0888182",
        "jupiter_tisserand_invariant" : "4.974",
        "epoch_osculation" : "2458000.5",
        "eccentricity" : ".1776045311604846",
        "semi_major_axis" : "1.303073871335825",
        "inclination" : "5.355514011940523",
        "ascending_node_longitude" : "340.0766126163834",
        "orbital_period" : "543.3153583287664",
        "perihelion_distance" : "1.071642047349749",
        "perihelion_argument" : "159.7974717121523",
        "aphelion_distance" : "1.534505695321902",
        "perihelion_time" : "2457968.829325036414",
        "mean_anomaly" : "20.98494513750135",
        "mean_motion" : ".6625986077539885",
        "equinox" : "J2000"
      }
    } ]
  }
}